ONEWEB-0461             
1 51649U 22012AD  24239.41909389  .00000095  00000+0  21177-3 0  9999
2 51649  87.9172 137.2645 0001891  74.2723 285.8617 13.17651219127006
ONEWEB-0463             
1 51650U 22012AE  24239.47727057  .00000049  00000+0  93970-4 0  9997
2 51650  87.9176 137.3031 0001947  73.1760 286.9585 13.17648041126793
ONEWEB-0464             
1 51651U 22012AF  24239.53319749 -.00000449  00000+0 -13219-2 0  9992
2 51651  87.8998 167.5177 0001610  82.6102 277.5209 13.10376198124233
ONEWEB-0468             
1 51652U 22012AG  24239.53982672 -.00000490  00000+0 -14404-2 0  9997
2 51652  87.8996 167.5088 0001923  76.2739 283.8602 13.10375580124203
ONEWEB-0473             
1 51653U 22012AH  24239.29581229 -.00000557  00000+0 -16319-2 0  9995
2 51653  87.8995 167.5603 0001878  74.1320 286.0014 13.10371912122887
ONEWEB-0474             
1 51654U 22012AJ  24239.51658894 -.00000459  00000+0 -13512-2 0  9997
2 51654  87.8983 167.5074 0001734  74.2832 285.8487 13.10370456122903
ONEWEB-0475             
1 51655U 22012AK  24239.41263763  .00000031  00000+0  47940-4 0  9992
2 51655  87.9177 137.2951 0001510  68.9503 291.1790 13.17648620126803
ONEWEB-0490             
1 54113U 22138A   24239.30102989  .00000106  00000+0  23324-3 0  9995
2 54113  87.9089  76.2395 0001604  89.0159 271.1157 13.19726438 89793
